CUBESAT XI-V            
1 28895U 05043F   22295.33226601  .00001101  00000+0  21589-3 0  9997
2 28895  98.1243  64.8951 0017727 101.4650 258.8545 14.64586330905983
CUTE-1.7+APD II (CO-65) 
1 32785U 08021C   22295.37244773  .00002040  00000+0  21641-3 0  9995
2 32785  97.6735 262.3355 0012885 165.4436 194.7155 14.90078209785386
AAUSAT-II               
1 32788U 08021F   22295.42448564  .00005509  00000+0  46337-3 0  9990
2 32788  97.5455 276.4052 0012718  63.5364 296.7162 14.98594377787447
DELFI-C3 (DO-64)        
1 32789U 08021G   22295.55047462  .00016291  00000+0  82654-3 0  9999
2 32789  97.3313 317.4418 0008006 232.3879 127.6629 15.16975521791173
SEEDS II (CO-66)        
1 32791U 08021J   22295.71875391  .00003460  00000+0  33429-3 0  9990
2 32791  97.6263 268.0374 0014091 121.6362 238.6235 14.93385291786266
SWISSCUBE               
1 35932U 09051B   22295.56693858  .00000702  00000+0  16688-3 0  9997
2 35932  98.5504 154.9636 0008117  24.8489 335.3098 14.57026431694600
BEESAT-1                
1 35933U 09051C   22295.52135915  .00000611  00000+0  14664-3 0  9990
2 35933  98.5439 156.4542 0006530  38.4601 321.7061 14.57022491694752
ITUPSAT1                
1 35935U 09051E   22295.34206000  .00000555  00000+0  13689-3 0  9999
2 35935  98.5540 156.2921 0008872  40.1249 320.0602 14.56119539694342
TISAT 1                 
1 36799U 10035E   22295.57706145  .00002408  00000+0  23429-3 0  9994
2 36799  98.1661 150.9858 0012740  42.3064 317.9135 14.93510252666735
M-CUBED & EXP-1 PRIME   
1 37855U 11061F   22295.43819959  .00009859  00000+0  40865-3 0  9991
2 37855 101.7200 122.1110 0146229  41.1052 320.1073 15.15018897600441
AEROCUBE 4.5A           
1 38767U 12048K   22295.79531652  .00009657  00000+0  66181-3 0  9995
2 38767  64.6652  70.6936 0166462 227.7013 130.9893 14.95895947169820
AEROCUBE 4.5B           
1 38768U 12048L   22295.52556665  .00012031  00000+0  74092-3 0  9998
2 38768  64.6682  23.0723 0150935 223.3260 135.5911 15.01248894170212
STRAND-1                
1 39090U 13009E   22295.52208431  .00000220  00000+0  91489-4 0  9997
2 39090  98.3969 130.3173 0007921 251.2286 108.8041 14.35349756505627
BRITE-AUSTRIA           
1 39091U 13009F   22295.50893812  .00000168  00000+0  73662-4 0  9993
2 39091  98.3990 129.4929 0009314 258.9139 101.1000 14.35316262505659
SOMP                    
1 39134U 13015E   22295.55674013  .00023607  00000+0  73848-3 0  9991
2 39134  64.8621   3.7171 0033619 263.5764  96.1541 15.32563876526301
BEESAT-3                
1 39135U 13015F   22295.41650816  .00015697  00000+0  58870-3 0  9990
2 39135  64.8661  43.5353 0038491 265.1578  94.5158 15.26715971525475
BEESAT-2                
1 39136U 13015G   22295.42112445  .00013295  00000+0  52536-3 0  9998
2 39136  64.8746  52.4837 0024199 293.1291  66.7289 15.25498238525265
NEE-01 PEGASO           
1 39151U 13018B   22295.79385420  .00001737  00000+0  22919-3 0  9993
2 39151  97.9986  41.0885 0016315 198.3782 161.6843 14.81274847512530
ESTCUBE 1               
1 39161U 13021C   22295.65023412  .00001417  00000+0  22709-3 0  9995
2 39161  97.8976   9.5311 0009614  20.7902 339.3683 14.73207911508190
POPACS 1                
1 39268U 13055D   22295.43936801  .00026754  00000+0  65883-3 0  9992
2 39268  80.9912 102.5193 0554842 175.8837 184.7228 14.54632386471733
POPACS 2                
1 39269U 13055E   22295.37453501  .00011516  00000+0  31264-3 0  9993
2 39269  81.0123 163.3841 0636922 333.8567  23.1691 14.35345080468378
POPACS 3                
1 39270U 13055F   22294.98770934  .00007791  00000+0  23186-3 0  9997
2 39270  81.0166 198.9525 0684739  74.3882 293.1749 14.23175893446623
ZACUBE-1 (TSHEPISOSAT)  
1 39417U 13066B   22295.18741733  .00002843  00000+0  34783-3 0  9998
2 39417  97.6525 261.0935 0056959 350.8503   9.1668 14.82837383481903
WNISAT-1                
1 39423U 13066H   22295.85226839  .00000504  00000+0  10739-3 0  9991
2 39423  97.7308 167.8239 0175294  99.5635 262.5421 14.53617155472955
TRITON-1                
1 39427U 13066M   22295.76692488  .00001356  00000+0  21738-3 0  9999
2 39427  97.8192 226.0763 0110070 217.0913 142.2651 14.69360507477663
DELFI-N3XT              
1 39428U 13066N   22295.38722679  .00002581  00000+0  39863-3 0  9993
2 39428  97.8188 224.3490 0114590 231.4635 127.6257 14.69838254477353
GOMX-1                  
1 39430U 13066Q   22295.83204583  .00002124  00000+0  38327-3 0  9992
2 39430  97.7972 195.6972 0148914   3.7542 356.4718 14.60507182474888
CUBEBUG-2 (LO-74)       
1 39440U 13066AA  22295.39607024  .00002054  00000+0  28076-3 0  9993
2 39440  97.7408 247.7314 0079856  79.8161 281.2045 14.77413768479024
NEE-02 KRYSAOR          
1 39441U 13066AB  22295.37567645  .00001384  00000+0  19728-3 0  9995
2 39441  97.7520 244.8175 0081769  94.0675 266.9887 14.76033426478759
FUNCUBE-1 (AO-73)       
1 39444U 13066AE  22295.85003920  .00003739  00000+0  44305-3 0  9997
2 39444  97.6403 264.1555 0055206 336.0602  23.8047 14.84037571481008
UWE-3                   
1 39446U 13066AG  22295.33330865  .00002532  00000+0  32804-3 0  9994
2 39446  97.7015 254.0397 0069168  36.7808 323.8121 14.80012253479229
AEROCUBE 5A             
1 39465U 13072D   22295.33699988  .00050525  00000+0  22391-2 0  9990
2 39465 120.4818  69.6017 0174761  52.8098 308.8786 15.08547274168671
AEROCUBE 5B             
1 39466U 13072E   22295.72392420  .00230171  00000+0  35618-2 0  9998
2 39466 120.4485 177.7209 0098058  71.8447 289.3289 15.47534636170191
BRITE-CA1 (TORONTO)     
1 40020U 14033L   22295.68306688  .00000983  00000+0  17376-3 0  9998
2 40020  97.7952  88.3027 0085788 217.0652 142.4609 14.67208508446421
DUCHIFAT-1              
1 40021U 14033M   22295.39137885  .00004147  00000+0  39636-3 0  9997
2 40021  98.0255 248.0418 0011888 350.0749  10.0233 14.93775510453642
NANOSATC-BR1            
1 40024U 14033Q   22295.36525893  .00003179  00000+0  31536-3 0  9992
2 40024  97.9967 240.6910 0011631 357.8161   2.3005 14.92472914452907
QB50P1                  
1 40025U 14033R   22295.78846610  .00003834  00000+0  39197-3 0  9991
2 40025  97.9691 234.2662 0012115   6.6552 353.4824 14.91118657453243
QB50P2                  
1 40032U 14033Y   22295.52879135  .00002654  00000+0  27742-3 0  9991
2 40032  97.9437 228.8870 0011593   5.4277 354.7064 14.90498368452540
PERSEUS-M2              
1 40037U 14033AD  22295.73809935  .00001194  00000+0  13809-3 0  9997
2 40037  97.8958 217.2429 0014874  25.9964 334.1996 14.87344812452545
PERSEUS-M1              
1 40039U 14033AF  22295.76654749  .00001214  00000+0  14174-3 0  9992
2 40039  97.8846 214.7905 0014715  25.2510 334.9422 14.86946962452431
POLYITAN-1              
1 40042U 14033AJ  22295.79657669  .00004808  00000+0  48793-3 0  9999
2 40042  97.9800 235.6500 0014027 357.8997   2.2160 14.91277066453138
TIGRISAT                
1 40043U 14033AK  22295.48161562  .00001249  00000+0  18621-3 0  9991
2 40043  97.6564 117.9250 0060228 104.4642 256.3261 14.75289628448355
AEROCUBE 6A             
1 40045U 14033AM  22295.26377667  .00001379  00000+0  19881-3 0  9997
2 40045  97.6604 126.8654 0057789  92.3363 268.4466 14.76685701448491
AEROCUBE 6B             
1 40046U 14033AN  22295.47623446  .00002240  00000+0  31475-3 0  9991
2 40046  97.6522 125.4797 0056661  89.6965 271.0738 14.77228831448534
UKUBE-1                 
1 40074U 14037F   22295.64968701  .00002789  00000+0  32680-3 0  9998
2 40074  98.3623 182.8802 0002788 231.6525 128.4453 14.85900254448951
BRITE-PL2 (HEWELIUSZ)   
1 40119U 14049B   22295.80848414  .00001346  00000+0  16226-3 0  9993
2 40119  97.8846  30.1464 0017095 181.0935 179.0245 14.85401419443002
FIREBIRD 4              
1 40378U 15003C   22295.65099949  .00031040  00000+0  81371-3 0  9992
2 40378  99.0808 189.4433 0088993 313.5075  45.8790 15.34611308427908
GRIFEX                  
1 40379U 15003D   22295.21136103  .00014613  00000+0  48172-3 0  9998
2 40379  99.0916 173.2985 0109555   2.0870 358.0797 15.25913301426939
CP10 (EXOCUBE)          
1 40380U 15003E   22295.35617404  .00009119  00000+0  33461-3 0  9993
2 40380  99.1027 165.6223 0119733  27.7870 332.9688 15.21703314426441
TIANWANG 1A (TW-1A)     
1 40928U 15051D   22295.83690490  .00116696  00000+0  77577-3 0  9998
2 40928  97.0254 318.3332 0003212 223.5628 310.8138 15.75091963398168
EXACTVIEW 9             
1 40936U 15052G   22295.64068736  .00001927  00000+0  17613-3 0  9994
2 40936   6.0043 345.6567 0010158 161.5196 198.5301 14.77411612382090
AEROCUBE 5C             
1 40965U 15058B   22295.50928546  .00003398  00000+0  39922-3 0  9992
2 40965  64.7788  65.7193 0176085 158.1384 202.7357 14.76064715167713
AEROCUBE 7              
1 40966U 15058C   22295.79528038  .00004378  00000+0  50355-3 0  9998
2 40966  64.7789  61.6895 0173736 157.6459 203.2339 14.76734308167781
ATHENOXAT 1             
1 41168U 15077C   22295.97684473  .00020273  00000+0  75995-3 0  9999
2 41168  14.9857 223.0481 0008588 249.4117 186.9407 15.24726576379776
GALASSIA                
1 41170U 15077E   22295.11751816  .00012522  00000+0  48210-3 0  9992
2 41170  14.9872 221.6949 0010708 253.5811 106.3334 15.23059148379546
VELOX-II                
1 41171U 15077F   22295.38641513  .00009851  00000+0  43780-3 0  9992
2 41171  14.9916 299.9919 0007054  83.4220 276.6905 15.17775459378913
HORYU-4                 
1 41340U 16012D   22295.29542017  .00004317  00000+0  29719-3 0  9997
2 41340  31.0041 268.6409 0012513  22.8645 337.2547 15.04161409366835
E-ST@R-II               
1 41459U 16025D   22295.71665785  .00019993  00000+0  80528-3 0  9998
2 41459  98.1946 110.6414 0137305 196.3947 163.2802 15.16556305356763
AAUSAT 4                
1 41460U 16025E   22295.79419466  .00032694  00000+0  10985-2 0  9993
2 41460  98.1840 118.2301 0113452 167.7633 205.6312 15.24710771357304
